{
    "links": {
        "self": "http://www.neowsapp.com/rest/v1/neo/3785924?api_key=iIulBulltgU6a56xZRHN4H3l9WmuAYTsLGpBGhQ2"
    },
    "id": "3785924",
    "neo_reference_id": "3785924",
    "name": "(2017 TT5)",
    "designation": "2017 TT5",
    "nasa_jpl_url": "http://ssd.jpl.nasa.gov/sbdb.cgi?sstr=3785924",
    "absolute_magnitude_h": 25.0,
    "estimated_diameter": {
        "kilometers": {
            "estimated_diameter_min": 0.02658,
            "estimated_diameter_max": 0.0594346868
        },
        "meters": {
            "estimated_diameter_min": 26.58,
            "estimated_diameter_max": 59.4346868419
        },
        "miles": {
            "estimated_diameter_min": 0.0165160412,
            "estimated_diameter_max": 0.0369309908
        },
        "feet": {
            "estimated_diameter_min": 87.2047272,
            "estimated_diameter_max": 194.9956979785
        }
    },
    "is_potentially_hazardous_asteroid": false,
    "close_approach_data": [
        {
            "close_approach_date": "2017-10-12",
            "close_approach_date_full": "2017-Oct-12 15:22",
            "epoch_date_close_approach": 1507821720000,
            "relative_velocity": {
                "kilometers_per_second": "19.9795592619",
                "kilometers_per_hour": "71926.4133427007",
                "miles_per_hour": "44692.2761128575"
            },
            "miss_distance": {
                "astronomical": "0.0975255126",
                "lunar": "37.9374244014",
                "kilometers": "14589608.955618162",
                "miles": "9065562.6292961556"
            },
            "orbiting_body": "Earth"
        }
    ],
    "orbital_data": {
        "orbit_id": "1",
        "orbit_determination_date": "2017-10-16 12:42:08",
        "first_observation_date": "2017-10-14",
        "last_observation_date": "2017-10-16",
        "data_arc_in_days": 2,
        "observations_used": 17,
        "orbit_uncertainty": "9",
        "minimum_orbit_intersection": ".0967658",
        "jupiter_tisserand_invariant": "3.806",
        "epoch_osculation": "2458041.5",
        "eccentricity": ".3900798418470764",
        "semi_major_axis": "1.770706887232922",
        "inclination": "36.13114911614729",
        "ascending_node_longitude": "17.99171428563799",
        "orbital_period": "860.6338858459088",
        "perihelion_distance": "1.079989824703575",
        "perihelion_argument": "18.49821075802329",
        "aphelion_distance": "2.461423949762269",
        "perihelion_time": "2458056.324854162792",
        "mean_anomaly": "353.7988178406902",
        "mean_motion": ".4182963347372262",
        "equinox": "J2000",
        "orbit_class": {
            "orbit_class_type": "AMO",
            "orbit_class_description": "Near-Earth asteroid orbits similar to that of 1221 Amor",
            "orbit_class_range": "1.017 AU < q (perihelion) < 1.3 AU"
        }
    },
    "is_sentry_object": false
}